{"fetched_at":"2026-03-29T16:36:15Z","count":15609,"tles":[{"name":"STARLINK-4596","line1":"1 53624U 22104AN  26087.86769734  .00000211  00000+0  31327-4 0  9995","line2":"2 53624  53.2166 147.7850 0001338  86.3071 273.8074 15.08838186198644","category":"Starlink"}]}